{
  "type": "FeatureCollection",
  "features": [
    {
      "type": "Feature",
      "properties": {
        "norad_id": 32175,
        "name": "FENGYUN 1C DEB",
        "group": "fengyun-1c-debris",
        "lat": 12.922961547837913,
        "lon": 168.35076277220253,
        "alt_km": 974.5933247148541,
        "timestamp": "2025-12-24T05:51:19.894486+00:00",
        "meta_object_name": "FENGYUN 1C DEB",
        "meta_object_id": "1999-025CTV",
        "meta_epoch": "2025-12-23T04:56:33.925344",
        "meta_mean_motion": 13.94880841,
        "meta_eccentricity": 0.01517458,
        "meta_inclination": 98.8236,
        "meta_ra_of_asc_node": 345.3153,
        "meta_arg_of_pericenter": 294.464,
        "meta_mean_anomaly": 64.0759,
        "meta_ephemeris_type": 0,
        "meta_classification_type": "U",
        "meta_norad_cat_id": 32175,
        "meta_element_set_no": 999,
        "meta_rev_at_epoch": 59986,
        "meta_bstar": 0.0025272856,
        "meta_mean_motion_dot": 3.694e-05,
        "meta_mean_motion_ddot": 0,
        "tle_line1": "1 32175U 99025CTV 25357.20594821  .00003694  00000+0  25273-2 0  9998",
        "tle_line2": "2 32175  98.8236 345.3153 0151745 294.4640  64.0759 13.94880841599866"
      },
      "geometry": {
        "type": "Point",
        "coordinates": [
          168.35076277220253,
          12.922961547837913
        ]
      }
    },
    {
      "type": "Feature",
      "properties": {
        "norad_id": 32177,
        "name": "FENGYUN 1C DEB",
        "group": "fengyun-1c-debris",
        "lat": -36.135631538720254,
        "lon": 15.186278650442198,
        "alt_km": 686.2904468851739,
        "timestamp": "2025-12-24T05:51:19.894496+00:00",
        "meta_object_name": "FENGYUN 1C DEB",
        "meta_object_id": "1999-025CTX",
        "meta_epoch": "2025-12-19T07:17:54.949344",
        "meta_mean_motion": 14.56293661,
        "meta_eccentricity": 0.0051637,
        "meta_inclination": 99.0437,
        "meta_ra_of_asc_node": 3.1558,
        "meta_arg_of_pericenter": 25.4129,
        "meta_mean_anomaly": 334.9588,
        "meta_ephemeris_type": 0,
        "meta_classification_type": "U",
        "meta_norad_cat_id": 32177,
        "meta_element_set_no": 999,
        "meta_rev_at_epoch": 71134,
        "meta_bstar": 0.00096839,
        "meta_mean_motion_dot": 4.312e-05,
        "meta_mean_motion_ddot": 0,
        "tle_line1": "1 32177U 99025CTX 25353.30410821  .00004312  00000+0  96839-3 0  9999",
        "tle_line2": "2 32177  99.0437   3.1558 0051637  25.4129 334.9588 14.56293661711340"
      },
      "geometry": {
        "type": "Point",
        "coordinates": [
          15.186278650442198,
          -36.135631538720254
        ]
      }
    },
    {
      "type": "Feature",
      "properties": {
        "norad_id": 32178,
        "name": "FENGYUN 1C DEB",
        "group": "fengyun-1c-debris",
        "lat": -59.68416529615611,
        "lon": 163.48928185824812,
        "alt_km": 778.4910346664501,
        "timestamp": "2025-12-24T05:51:19.894506+00:00",
        "meta_object_name": "FENGYUN 1C DEB",
        "meta_object_id": "1999-025CTY",
        "meta_epoch": "2025-12-23T18:35:31.360128",
        "meta_mean_motion": 14.23044864,
        "meta_eccentricity": 0.00944146,
        "meta_inclination": 100.3037,
        "meta_ra_of_asc_node": 1.0671,
        "meta_arg_of_pericenter": 293.0216,
        "meta_mean_anomaly": 66.1021,
        "meta_ephemeris_type": 0,
        "meta_classification_type": "U",
        "meta_norad_cat_id": 32178,
        "meta_element_set_no": 999,
        "meta_rev_at_epoch": 64160,
        "meta_bstar": 0.0011295374,
        "meta_mean_motion_dot": 2.608e-05,
        "meta_mean_motion_ddot": 0,
        "tle_line1": "1 32178U 99025CTY 25357.77466852  .00002608  00000+0  11295-2 0  9998",
        "tle_line2": "2 32178 100.3037   1.0671 0094414 293.0216  66.1021 14.23044864641606"
      },
      "geometry": {
        "type": "Point",
        "coordinates": [
          163.48928185824812,
          -59.68416529615611
        ]
      }
    },
    {
      "type": "Feature",
      "properties": {
        "norad_id": 32179,
        "name": "FENGYUN 1C DEB",
        "group": "fengyun-1c-debris",
        "lat": 2.383378891968199,
        "lon": -132.78049235858583,
        "alt_km": 783.6169719636882,
        "timestamp": "2025-12-24T05:51:19.894516+00:00",
        "meta_object_name": "FENGYUN 1C DEB",
        "meta_object_id": "1999-025CTZ",
        "meta_epoch": "2025-12-23T21:18:06.804000",
        "meta_mean_motion": 14.03693079,
        "meta_eccentricity": 0.01458864,
        "meta_inclination": 98.9084,
        "meta_ra_of_asc_node": 46.4962,
        "meta_arg_of_pericenter": 158.9136,
        "meta_mean_anomaly": 17.9946,
        "meta_ephemeris_type": 0,
        "meta_classification_type": "U",
        "meta_norad_cat_id": 32179,
        "meta_element_set_no": 999,
        "meta_rev_at_epoch": 65884,
        "meta_bstar": 0.00042365511,
        "meta_mean_motion_dot": 6.89e-06,
        "meta_mean_motion_ddot": 0,
        "tle_line1": "1 32179U 99025CTZ 25357.88757875  .00000689  00000+0  42366-3 0  9990",
        "tle_line2": "2 32179  98.9084  46.4962 0145886 158.9136  17.9946 14.03693079658847"
      },
      "geometry": {
        "type": "Point",
        "coordinates": [
          -132.78049235858583,
          2.383378891968199
        ]
      }
    },
    {
      "type": "Feature",
      "properties": {
        "norad_id": 32180,
        "name": "FENGYUN 1C DEB",
        "group": "fengyun-1c-debris",
        "lat": -61.381245589116446,
        "lon": 56.59913437696244,
        "alt_km": 1007.1432391044573,
        "timestamp": "2025-12-24T05:51:19.894527+00:00",
        "meta_object_name": "FENGYUN 1C DEB",
        "meta_object_id": "1999-025CUA",
        "meta_epoch": "2025-12-22T23:28:34.256928",
        "meta_mean_motion": 13.8233046,
        "meta_eccentricity": 0.0136707,
        "meta_inclination": 99.5844,
        "meta_ra_of_asc_node": 37.2738,
        "meta_arg_of_pericenter": 183.4887,
        "meta_mean_anomaly": 296.4475,
        "meta_ephemeris_type": 0,
        "meta_classification_type": "U",
        "meta_norad_cat_id": 32180,
        "meta_element_set_no": 999,
        "meta_rev_at_epoch": 94409,
        "meta_bstar": 0.00010963048,
        "meta_mean_motion_dot": 8.1e-07,
        "meta_mean_motion_ddot": 0,
        "tle_line1": "1 32180U 99025CUA 25356.97817427  .00000081  00000+0  10963-3 0  9995",
        "tle_line2": "2 32180  99.5844  37.2738 0136707 183.4887 296.4475 13.82330460944091"
      },
      "geometry": {
        "type": "Point",
        "coordinates": [
          56.59913437696244,
          -61.381245589116446
        ]
      }
    },
    {
      "type": "Feature",
      "properties": {
        "norad_id": 32181,
        "name": "FENGYUN 1C DEB",
        "group": "fengyun-1c-debris",
        "lat": 32.57070916868055,
        "lon": 97.44962494187567,
        "alt_km": 654.3521313923602,
        "timestamp": "2025-12-24T05:51:19.894537+00:00",
        "meta_object_name": "FENGYUN 1C DEB",
        "meta_object_id": "1999-025CUB",
        "meta_epoch": "2025-12-23T13:18:59.484096",
        "meta_mean_motion": 14.56114075,
        "meta_eccentricity": 0.00732383,
        "meta_inclination": 99.4732,
        "meta_ra_of_asc_node": 102.791,
        "meta_arg_of_pericenter": 53.2154,
        "meta_mean_anomaly": 329.863,
        "meta_ephemeris_type": 0,
        "meta_classification_type": "U",
        "meta_norad_cat_id": 32181,
        "meta_element_set_no": 999,
        "meta_rev_at_epoch": 96878,
        "meta_bstar": 0.00096439919,
        "meta_mean_motion_dot": 4.352e-05,
        "meta_mean_motion_ddot": 0,
        "tle_line1": "1 32181U 99025CUB 25357.55485514  .00004352  00000+0  96440-3 0  9998",
        "tle_line2": "2 32181  99.4732 102.7910 0073238  53.2154 329.8630 14.56114075968787"
      },
      "geometry": {
        "type": "Point",
        "coordinates": [
          97.44962494187567,
          32.57070916868055
        ]
      }
    },
    {
      "type": "Feature",
      "properties": {
        "norad_id": 32183,
        "name": "FENGYUN 1C DEB",
        "group": "fengyun-1c-debris",
        "lat": 72.59964715936887,
        "lon": -101.62002995985048,
        "alt_km": 844.9053227228032,
        "timestamp": "2025-12-24T05:51:19.894547+00:00",
        "meta_object_name": "FENGYUN 1C DEB",
        "meta_object_id": "1999-025CUD",
        "meta_epoch": "2025-12-23T02:06:54.923616",
        "meta_mean_motion": 14.10108843,
        "meta_eccentricity": 0.00422526,
        "meta_inclination": 98.7125,
        "meta_ra_of_asc_node": 47.9658,
        "meta_arg_of_pericenter": 31.5144,
        "meta_mean_anomaly": 328.8545,
        "meta_ephemeris_type": 0,
        "meta_classification_type": "U",
        "meta_norad_cat_id": 32183,
        "meta_element_set_no": 999,
        "meta_rev_at_epoch": 72910,
        "meta_bstar": 0.00064672535,
        "meta_mean_motion_dot": 1.11e-05,
        "meta_mean_motion_ddot": 0,
        "tle_line1": "1 32183U 99025CUD 25357.08813569  .00001110  00000+0  64673-3 0  9995",
        "tle_line2": "2 32183  98.7125  47.9658 0042252  31.5144 328.8545 14.10108843729107"
      },
      "geometry": {
        "type": "Point",
        "coordinates": [
          -101.62002995985048,
          72.59964715936887
        ]
      }
    }
  ]
}